{
  "norad_id": 54134,
  "name": "ONEWEB-0516",
  "history": [
    {
      "epoch": "2026-03-28T22:23:35.685024Z",
      "apogee_km": 1187.167178096317,
      "perigee_km": 1184.3673232988795,
      "latitude_deg": 2.263851872287924e-05,
      "longitude_deg": 158.7294193510342,
      "height_km": 1188.4768094350136,
      "semi_major_axis_km": 7563.9042506975975,
      "eccentricity": 0.00018508,
      "inclination_deg": 87.9197,
      "raan_deg": 320.9745,
      "arg_perigee_deg": 82.2424,
      "mean_anomaly_deg": 277.8919,
      "mean_motion_rev_day": 13.19725864
    },
    {
      "epoch": "2026-03-29T03:51:07.371072Z",
      "apogee_km": 1187.1705906891084,
      "perigee_km": 1184.3583321257584,
      "latitude_deg": 1.8169004729364332e-05,
      "longitude_deg": 76.57790902609838,
      "height_km": 1188.4786748741865,
      "semi_major_axis_km": 7563.901461407433,
      "eccentricity": 0.0001859,
      "inclination_deg": 87.9195,
      "raan_deg": 320.9292,
      "arg_perigee_deg": 82.4688,
      "mean_anomaly_deg": 277.6656,
      "mean_motion_rev_day": 13.19726594
    },
    {
      "epoch": "2026-03-30T01:41:15.248832Z",
      "apogee_km": 1187.127921205909,
      "perigee_km": 1184.4800880178345,
      "latitude_deg": 1.56411123979412e-05,
      "longitude_deg": 107.96743243509482,
      "height_km": 1188.5007690853683,
      "semi_major_axis_km": 7563.941004611871,
      "eccentricity": 0.00017503,
      "inclination_deg": 87.9198,
      "raan_deg": 320.7483,
      "arg_perigee_deg": 81.2268,
      "mean_anomaly_deg": 278.9063,
      "mean_motion_rev_day": 13.19716245
    },
    {
      "epoch": "2026-03-30T14:25:29.787744Z",
      "apogee_km": 1187.1114537407075,
      "perigee_km": 1184.5189847570837,
      "latitude_deg": 4.995755343062598e-05,
      "longitude_deg": -83.72184978833752,
      "height_km": 1188.5081445499598,
      "semi_major_axis_km": 7563.952219248896,
      "eccentricity": 0.00017137,
      "inclination_deg": 87.9197,
      "raan_deg": 320.6427,
      "arg_perigee_deg": 80.8636,
      "mean_anomaly_deg": 279.2691,
      "mean_motion_rev_day": 13.1971331
    },
    {
      "epoch": "2026-03-30T21:42:11.850048Z",
      "apogee_km": 1187.09565329609,
      "perigee_km": 1184.5021309573976,
      "latitude_deg": 2.9930089154593172e-05,
      "longitude_deg": 166.74357899897825,
      "height_km": 1188.4965795756204,
      "semi_major_axis_km": 7563.935892126744,
      "eccentricity": 0.00017144,
      "inclination_deg": 87.9196,
      "raan_deg": 320.5823,
      "arg_perigee_deg": 81.0801,
      "mean_anomaly_deg": 279.0526,
      "mean_motion_rev_day": 13.19717583
    },
    {
      "epoch": "2026-03-31T21:21:28.955808Z",
      "apogee_km": 1187.130011071762,
      "perigee_km": 1184.428180242393,
      "latitude_deg": -6.950671837819122e-05,
      "longitude_deg": 170.7555366383796,
      "height_km": 1188.4634315327269,
      "semi_major_axis_km": 7563.916095657078,
      "eccentricity": 0.0001786,
      "inclination_deg": 87.9212,
      "raan_deg": 320.387,
      "arg_perigee_deg": 80.8712,
      "mean_anomaly_deg": 279.2622,
      "mean_motion_rev_day": 13.19722764
    },
    {
      "epoch": "2026-04-01T21:00:46.617984Z",
      "apogee_km": 1187.1839288896654,
      "perigee_km": 1184.3746903722677,
      "latitude_deg": 1.469015560054143e-06,
      "longitude_deg": 174.76357555952094,
      "height_km": 1188.4268956774345,
      "semi_major_axis_km": 7563.916309630966,
      "eccentricity": 0.0001857,
      "inclination_deg": 87.9187,
      "raan_deg": 320.1901,
      "arg_perigee_deg": 79.7091,
      "mean_anomaly_deg": 280.4251,
      "mean_motion_rev_day": 13.19722708
    },
    {
      "epoch": "2026-04-02T20:40:03.971712Z",
      "apogee_km": 1187.1537901881666,
      "perigee_km": 1184.3778378554216,
      "latitude_deg": 5.3302025654934075e-05,
      "longitude_deg": 178.7734020311168,
      "height_km": 1188.4539672663552,
      "semi_major_axis_km": 7563.902814021794,
      "eccentricity": 0.0001835,
      "inclination_deg": 87.9185,
      "raan_deg": 319.9937,
      "arg_perigee_deg": 81.2815,
      "mean_anomaly_deg": 278.8526,
      "mean_motion_rev_day": 13.1972624
    },
    {
      "epoch": "2026-04-02T20:40:03.972576Z",
      "apogee_km": 1187.1538658271957,
      "perigee_km": 1184.3777622163934,
      "latitude_deg": 5.214956326643424e-05,
      "longitude_deg": 178.77339837958507,
      "height_km": 1188.4539558010333,
      "semi_major_axis_km": 7563.902814021794,
      "eccentricity": 0.00018351,
      "inclination_deg": 87.9185,
      "raan_deg": 319.9937,
      "arg_perigee_deg": 81.2815,
      "mean_anomaly_deg": 278.8526,
      "mean_motion_rev_day": 13.1972624
    },
    {
      "epoch": "2026-04-03T16:41:00.138336Z",
      "apogee_km": 1187.1641456412608,
      "perigee_km": 1184.3624769659536,
      "latitude_deg": -5.802183058801017e-05,
      "longitude_deg": -122.44864110859876,
      "height_km": 1188.4574018042235,
      "semi_major_axis_km": 7563.900311303607,
      "eccentricity": 0.0001852,
      "inclination_deg": 87.9183,
      "raan_deg": 319.8277,
      "arg_perigee_deg": 81.6083,
      "mean_anomaly_deg": 278.5259,
      "mean_motion_rev_day": 13.19726895
    },
    {
      "epoch": "2026-04-04T03:36:03.540672Z",
      "apogee_km": 1187.1673568227443,
      "perigee_km": 1184.3629644576658,
      "latitude_deg": 2.282293387401287e-05,
      "longitude_deg": 73.24821486681853,
      "height_km": 1188.4586956773408,
      "semi_major_axis_km": 7563.902160640205,
      "eccentricity": 0.00018538,
      "inclination_deg": 87.9181,
      "raan_deg": 319.7371,
      "arg_perigee_deg": 81.5943,
      "mean_anomaly_deg": 278.54,
      "mean_motion_rev_day": 13.19726411
    },
    {
      "epoch": "2026-04-05T14:10:24.319200Z",
      "apogee_km": 1187.1690787028647,
      "perigee_km": 1184.3599969497482,
      "latitude_deg": -1.7611167128927964e-05,
      "longitude_deg": -87.04520525778001,
      "height_km": 1188.4599904125419,
      "semi_major_axis_km": 7563.901537826307,
      "eccentricity": 0.00018569,
      "inclination_deg": 87.918,
      "raan_deg": 319.4501,
      "arg_perigee_deg": 81.6875,
      "mean_anomaly_deg": 278.4468,
      "mean_motion_rev_day": 13.19726574
    },
    {
      "epoch": "2026-04-05T21:27:06.556896Z",
      "apogee_km": 1187.16711799522,
      "perigee_km": 1184.360910718894,
      "latitude_deg": 9.402543700367915e-06,
      "longitude_deg": 163.4193915358346,
      "height_km": 1188.4573042200984,
      "semi_major_axis_km": 7563.901014357057,
      "eccentricity": 0.0001855,
      "inclination_deg": 87.9179,
      "raan_deg": 319.3896,
      "arg_perigee_deg": 81.5897,
      "mean_anomaly_deg": 278.5446,
      "mean_motion_rev_day": 13.19726711
    },
    {
      "epoch": "2026-04-06T01:05:27.717216Z",
      "apogee_km": 1187.1594628189996,
      "perigee_km": 1184.3706521304084,
      "latitude_deg": -6.044937019074696e-05,
      "longitude_deg": 108.65166361298132,
      "height_km": 1188.45957566575,
      "semi_major_axis_km": 7563.902057474704,
      "eccentricity": 0.00018435,
      "inclination_deg": 87.9179,
      "raan_deg": 319.3595,
      "arg_perigee_deg": 81.5866,
      "mean_anomaly_deg": 278.5475,
      "mean_motion_rev_day": 13.19726438
    },
    {
      "epoch": "2026-04-07T13:28:59.027520Z",
      "apogee_km": 1187.1468395961128,
      "perigee_km": 1184.379813578641,
      "latitude_deg": 2.3027660794337846e-05,
      "longitude_deg": -79.02536457457698,
      "height_km": 1188.450856297024,
      "semi_major_axis_km": 7563.900326587377,
      "eccentricity": 0.00018291,
      "inclination_deg": 87.918,
      "raan_deg": 319.0575,
      "arg_perigee_deg": 81.2265,
      "mean_anomaly_deg": 278.9075,
      "mean_motion_rev_day": 13.19726891
    },
    {
      "epoch": "2026-04-07T20:45:41.316192Z",
      "apogee_km": 1187.145236480057,
      "perigee_km": 1184.3844123141516,
      "latitude_deg": -3.1401693676268315e-05,
      "longitude_deg": 171.43911594564415,
      "height_km": 1188.4530937366105,
      "semi_major_axis_km": 7563.901824397104,
      "eccentricity": 0.0001825,
      "inclination_deg": 87.9179,
      "raan_deg": 318.9971,
      "arg_perigee_deg": 81.2371,
      "mean_anomaly_deg": 278.8968,
      "mean_motion_rev_day": 13.19726499
    },
    {
      "epoch": "2026-04-08T14:57:26.895744Z",
      "apogee_km": 1187.1415232292184,
      "perigee_km": 1184.3838766766103,
      "latitude_deg": -7.071684806080839e-06,
      "longitude_deg": -102.39908322767069,
      "height_km": 1188.4510346844802,
      "semi_major_axis_km": 7563.8996999529145,
      "eccentricity": 0.00018229,
      "inclination_deg": 87.9177,
      "raan_deg": 318.8461,
      "arg_perigee_deg": 81.2297,
      "mean_anomaly_deg": 278.9042,
      "mean_motion_rev_day": 13.19727055
    },
    {
      "epoch": "2026-04-09T12:47:33.663264Z",
      "apogee_km": 1187.1274108970683,
      "perigee_km": 1184.398355819153,
      "latitude_deg": 1.7854953735907618e-06,
      "longitude_deg": -71.00522396298618,
      "height_km": 1188.455635233013,
      "semi_major_axis_km": 7563.89988335811,
      "eccentricity": 0.0001804,
      "inclination_deg": 87.9174,
      "raan_deg": 318.6649,
      "arg_perigee_deg": 81.3235,
      "mean_anomaly_deg": 278.8102,
      "mean_motion_rev_day": 13.19727007
    },
    {
      "epoch": "2026-04-10T03:20:58.100640Z",
      "apogee_km": 1187.1246234884784,
      "perigee_km": 1184.3960231680612,
      "latitude_deg": -3.0445757504497435e-06,
      "longitude_deg": 69.9243257241202,
      "height_km": 1188.4566356775706,
      "semi_major_axis_km": 7563.8973233282695,
      "eccentricity": 0.00018037,
      "inclination_deg": 87.9174,
      "raan_deg": 318.5441,
      "arg_perigee_deg": 81.4732,
      "mean_anomaly_deg": 278.6605,
      "mean_motion_rev_day": 13.19727677
    }
  ]
}